$$SOE
2461302.500000000, A.D. 2026-Sep-19 00:00:00.0000, -9.325477488189298E+07, 3.054817386460513E+08, -1.706066787963592E+08,
2461309.500000000, A.D. 2026-Sep-26 00:00:00.0000, -1.020928088394119E+08, 2.986548564285163E+08, -1.701242266406222E+08,
2461316.500000000, A.D. 2026-Oct-03 00:00:00.0000, -1.108233615199653E+08, 2.915135070086437E+08, -1.694625539918647E+08,
2461323.500000000, A.D. 2026-Oct-10 00:00:00.0000, -1.194336315361836E+08, 2.840557329300693E+08, -1.686168468914262E+08,
2461330.500000000, A.D. 2026-Oct-17 00:00:00.0000, -1.279101544357745E+08, 2.762798503667300E+08, -1.675822169822528E+08,
2461337.500000000, A.D. 2026-Oct-24 00:00:00.0000, -1.362387656686994E+08, 2.681844931061220E+08, -1.663537107020674E+08,
2461344.500000000, A.D. 2026-Oct-31 00:00:00.0000, -1.444045627009847E+08, 2.597686618523633E+08, -1.649263208168626E+08,
2461351.500000000, A.D. 2026-Nov-07 00:00:00.0000, -1.523918662694833E+08, 2.510317795094788E+08, -1.632950006936813E+08,
2461358.500000000, A.D. 2026-Nov-14 00:00:00.0000, -1.601841810134199E+08, 2.419737539589195E+08, -1.614546816830398E+08,
2461365.500000000, A.D. 2026-Nov-21 00:00:00.0000, -1.677641578556157E+08, 2.325950496768171E+08, -1.594002938707570E+08,
2461372.500000000, A.D. 2026-Nov-28 00:00:00.0000, -1.751135598367473E+08, 2.228967658760707E+08, -1.571267908931091E+08,
2461379.500000000, A.D. 2026-Dec-05 00:00:00.0000, -1.822132286636592E+08, 2.128807212211155E+08, -1.546291797937706E+08,
2461386.500000000, A.D. 2026-Dec-12 00:00:00.0000, -1.890430529037049E+08, 2.025495489263887E+08, -1.519025563428708E+08,
2461393.500000000, A.D. 2026-Dec-19 00:00:00.0000, -1.955819410510634E+08, 1.919068029235452E+08, -1.489421463729462E+08,
2461400.500000000, A.D. 2026-Dec-26 00:00:00.0000, -2.018078012230398E+08, 1.809570748479155E+08, -1.457433539710061E+08,
2461407.500000000, A.D. 2027-Jan-02 00:00:00.0000, -2.076975291491147E+08, 1.697061221639733E+08, -1.423018173930058E+08,
2461414.500000000, A.D. 2027-Jan-09 00:00:00.0000, -2.132270066401506E+08, 1.581610077948913E+08, -1.386134735669951E+08,
2461421.500000000, A.D. 2027-Jan-16 00:00:00.0000, -2.183711132123664E+08, 1.463302513694429E+08, -1.346746320557296E+08,
2461428.500000000, A.D. 2027-Jan-23 00:00:00.0000, -2.231037539691487E+08, 1.342239918187723E+08, -1.304820593363988E+08,
2461435.500000000, A.D. 2027-Jan-30 00:00:00.0000, -2.273979071618000E+08, 1.218541606055322E+08, -1.260330742084561E+08,
2461442.500000000, A.D. 2027-Feb-06 00:00:00.0000, -2.312256950746480E+08, 1.092346646835113E+08, -1.213256550089557E+08,
2461449.500000000, A.D. 2027-Feb-13 00:00:00.0000, -2.345584832026320E+08, 9.638157843941705E+07, -1.163585589583998E+08,
2461456.500000000, A.D. 2027-Feb-20 00:00:00.0000, -2.373670149727111E+08, 8.331334095860571E+07, -1.111314536482431E+08,
2461463.500000000, A.D. 2027-Feb-27 00:00:00.0000, -2.396215857663122E+08, 7.005095145431399E+07, -1.056450608007351E+08,
2461470.500000000, A.D. 2027-Mar-06 00:00:00.0000, -2.412922584530491E+08, 5.661815956380254E+07, -9.990131157893373E+07,
2461477.500000000, A.D. 2027-Mar-13 00:00:00.0000, -2.423491270818570E+08, 4.304164587647650E+07, -9.390351154880251E+07,
2461484.500000000, A.D. 2027-Mar-20 00:00:00.0000, -2.427626343705752E+08, 2.935118357937022E+07, -8.765651277687205E+07,
2461491.500000000, A.D. 2027-Mar-27 00:00:00.0000, -2.425039462869141E+08, 1.557977073749030E+07, -8.116688956259806E+07,
2461498.500000000, A.D. 2027-Apr-03 00:00:00.0000, -2.415453854037524E+08, 1.763721602569029E+06, -7.444311300867566E+07,
2461505.500000000, A.D. 2027-Apr-10 00:00:00.0000, -2.398609225596785E+08, -1.205729602422993E+07, -6.749571824606173E+07,
2461512.500000000, A.D. 2027-Apr-17 00:00:00.0000, -2.374267233475903E+08, -2.584029142507735E+07, -6.033745672761734E+07,
2461519.500000000, A.D. 2027-Apr-24 00:00:00.0000, -2.342217420847612E+08, -3.953906407216404E+07, -5.298342468675528E+07,
2461526.500000000, A.D. 2027-May-01 00:00:00.0000, -2.302283511970500E+08, -5.310441303862330E+07, -4.545115776851358E+07,
2461533.500000000, A.D. 2027-May-08 00:00:00.0000, -2.254329889456485E+08, -6.648445404492664E+07, -3.776068108984491E+07,
2461540.500000000, A.D. 2027-May-15 00:00:00.0000, -2.198268050679795E+08, -7.962505203391789E+07, -2.993450373194619E+07,
2461547.500000000, A.D. 2027-May-22 00:00:00.0000, -2.134062791349261E+08, -9.247037589093730E+07, -2.199754771553249E+07,
2461554.500000000, A.D. 2027-May-29 00:00:00.0000, -2.061737776169200E+08, -1.049635744073409E+08, -1.397700364417984E+07,
2461561.500000000, A.D. 2027-Jun-05 00:00:00.0000, -1.981380158572751E+08, -1.170475602475557E+08, -5.902107473469459E+06,
2461568.500000000, A.D. 2027-Jun-12 00:00:00.0000, -1.893143940700929E+08, -1.286658828109823E+08, 2.196163216541328E+06,
2461575.500000000, A.D. 2027-Jun-19 00:00:00.0000, -1.797251776551546E+08, -1.397636636581368E+08, 1.028546990947973E+07,
2461582.500000000, A.D. 2027-Jun-26 00:00:00.0000, -1.693994974561787E+08, -1.502885598890010E+08, 1.833256182816021E+07,
2461589.500000000, A.D. 2027-Jul-03 00:00:00.0000, -1.583731546206589E+08, -1.601917149469545E+08, 2.630377828042959E+07,
2461596.500000000, A.D. 2027-Jul-10 00:00:00.0000, -1.466882260284214E+08, -1.694286535253277E+08, 3.416558567546924E+07,
2461603.500000000, A.D. 2027-Jul-17 00:00:00.0000, -1.343924788308331E+08, -1.779600780274851E+08, 4.188512675871281E+07,
2461610.500000000, A.D. 2027-Jul-24 00:00:00.0000, -1.215386151560219E+08, -1.857525285501738E+08, 4.943075786947323E+07,
2461617.500000000, A.D. 2027-Jul-31 00:00:00.0000, -1.081833790164929E+08, -1.927788760361756E+08, 5.677255031650081E+07,
2461624.500000000, A.D. 2027-Aug-07 00:00:00.0000, -9.438656659577687E+07, -1.990186279683822E+08, 6.388273444316784E+07,
2461631.500000000, A.D. 2027-Aug-14 00:00:00.0000, -8.020998808264995E+07, -2.044580394938613E+08, 7.073606916725568E+07,
2461638.500000000, A.D. 2027-Aug-21 00:00:00.0000, -6.571642715719174E+07, -2.090900381940214E+08, 7.731012467595243E+07,
2461645.500000000, A.D. 2027-Aug-28 00:00:00.0000, -5.096863840524856E+07, -2.129139771564753E+08, 8.358547211694746E+07,
2461652.500000000, A.D. 2027-Sep-04 00:00:00.0000, -3.602842131526513E+07, -2.159352384449814E+08, 8.954578063117033E+07,
2461659.500000000, A.D. 2027-Sep-11 00:00:00.0000, -2.095580126691077E+07, -2.181647180757026E+08, 9.517782713589385E+07,
2461666.500000000, A.D. 2027-Sep-18 00:00:00.0000, -5.808336854493509E+06, -2.196182263754824E+08, 1.004714283267634E+08,
2461673.500000000, A.D. 2027-Sep-25 00:00:00.0000, 9.359436741815502E+06, -2.203158369485361E+08, 1.054193072710528E+08,
2461680.500000000, A.D. 2027-Oct-02 00:00:00.0000, 2.449642711943092E+07, -2.202812149539939E+08, 1.100169084931503E+08,
2461687.500000000, A.D. 2027-Oct-09 00:00:00.0000, 3.955527263729683E+07, -2.195409513401107E+08, 1.142621757369131E+08,
2461694.500000000, A.D. 2027-Oct-16 00:00:00.0000, 5.449251029896682E+07, -2.181239246757271E+08, 1.181553058674344E+08,
2461701.500000000, A.D. 2027-Oct-23 00:00:00.0000, 6.926863852176948E+07, -2.160607067890601E+08, 1.216984909282631E+08,
2461708.500000000, A.D. 2027-Oct-30 00:00:00.0000, 8.384809172629093E+07, -2.133830226142818E+08, 1.248956585475987E+08,
2461715.500000000, A.D. 2027-Nov-06 00:00:00.0000, 9.819914257308733E+07, -2.101232694771388E+08, 1.277522190316229E+08,
2461722.500000000, A.D. 2027-Nov-13 00:00:00.0000, 1.122937462140692E+08, -2.063141003477346E+08, 1.302748252766973E+08,
2461729.500000000, A.D. 2027-Nov-20 00:00:00.0000, 1.261073444443018E+08, -2.019880726146278E+08, 1.324711493177296E+08,
2461736.500000000, A.D. 2027-Nov-27 00:00:00.0000, 1.396186445472135E+08, -1.971773565106066E+08, 1.343496782618163E+08,
2461743.500000000, A.D. 2027-Dec-04 00:00:00.0000, 1.528093819759359E+08, -1.919134978244758E+08, 1.359195311950289E+08,
2461750.500000000, A.D. 2027-Dec-11 00:00:00.0000, 1.656640754629075E+08, -1.862272304801446E+08, 1.371902973166490E+08,
2461757.500000000, A.D. 2027-Dec-18 00:00:00.0000, 1.781697820628878E+08, -1.801483335048343E+08, 1.381718947506251E+08,
2461764.500000000, A.D. 2027-Dec-25 00:00:00.0000, 1.903158577873152E+08, -1.737055265125539E+08, 1.388744489719191E+08,
2461771.500000000, A.D. 2028-Jan-01 00:00:00.0000, 2.020937278827455E+08, -1.669263980195688E+08, 1.393081894352121E+08,
$$EOE